{"type": "FeatureCollection", "features": [ {"type": "Feature", "properties": {"norad_id": 39019, "name": "PLEIADES 1B", "group": "resource", "lat": 40.35533434571929, "lon": 60.36438617339976, "alt_km": 694.0427036839865, "timestamp": "2025-12-20T20:38:44.101023+00:00", "meta": {"OBJECT_NAME": "PLEIADES 1B", "OBJECT_ID": "2012-068A", "EPOCH": "2025-12-20T13:52:23.394720", "MEAN_MOTION": 14.58559919, "ECCENTRICITY": 0.00011974, "INCLINATION": 98.1793, "RA_OF_ASC_NODE": 67.1066, "ARG_OF_PERICENTER": 84.672, "MEAN_ANOMALY": 275.4616, "EPHEMERIS_TYPE": 0, "CLASSIFICATION_TYPE": "U", "NORAD_CAT_ID": 39019, "ELEMENT_SET_NO": 999, "REV_AT_EPOCH": 69481, "BSTAR": 9.8605183e-05, "MEAN_MOTION_DOT": 4.13e-06, "MEAN_MOTION_DDOT": 0}, "tle": {"line1": "1 39019U 12068A   25354.57804855  .00000413  00000+0  98605-4 0  9999", "line2": "2 39019  98.1793  67.1066 0001197  84.6720 275.4616 14.58559919694817"}}, "geometry": {"type": "Point", "coordinates": [60.36438617339976, 40.35533434571929]}}, {"type": "Feature", "properties": {"norad_id": 39030, "name": "GOKTURK 2", "group": "resource", "lat": 24.299467321159195, "lon": -167.38316981141293, "alt_km": 643.5076389378319, "timestamp": "2025-12-20T20:38:44.101033+00:00", "meta": {"OBJECT_NAME": "GOKTURK 2", "OBJECT_ID": "2012-073A", "EPOCH": "2025-12-20T14:01:24.942144", "MEAN_MOTION": 14.75300083, "ECCENTRICITY": 0.00012728, "INCLINATION": 97.6887, "RA_OF_ASC_NODE": 195.8516, "ARG_OF_PERICENTER": 108.8859, "MEAN_ANOMALY": 251.2489, "EPHEMERIS_TYPE": 0, "CLASSIFICATION_TYPE": "U", "NORAD_CAT_ID": 39030, "ELEMENT_SET_NO": 999, "REV_AT_EPOCH": 69817, "BSTAR": 3.3096033e-05, "MEAN_MOTION_DOT": 1.77e-06, "MEAN_MOTION_DDOT": 0}, "tle": {"line1": "1 39030U 12073A   25354.58431646  .00000177  00000+0  33096-4 0  9993", "line2": "2 39030  97.6887 195.8516 0001272 108.8859 251.2489 14.75300083698171"}}, "geometry": {"type": "Point", "coordinates": [-167.38316981141293, 24.299467321159195]}}, {"type": "Feature", "properties": {"norad_id": 39084, "name": "LANDSAT 8", "group": "resource", "lat": 10.883945201810036, "lon": -115.59649356019426, "alt_km": 703.8294273105475, "timestamp": "2025-12-20T20:38:44.101044+00:00", "meta": {"OBJECT_NAME": "LANDSAT 8", "OBJECT_ID": "2013-008A", "EPOCH": "2025-12-20T13:16:50.889792", "MEAN_MOTION": 14.57109859, "ECCENTRICITY": 0.00010862, "INCLINATION": 98.2063, "RA_OF_ASC_NODE": 62.5112, "ARG_OF_PERICENTER": 91.0026, "MEAN_ANOMALY": 269.1297, "EPHEMERIS_TYPE": 0, "CLASSIFICATION_TYPE": "U", "NORAD_CAT_ID": 39084, "ELEMENT_SET_NO": 999, "REV_AT_EPOCH": 67188, "BSTAR": 7.3459023e-05, "MEAN_MOTION_DOT": 2.86e-06, "MEAN_MOTION_DDOT": 0}, "tle": {"line1": "1 39084U 13008A   25354.55336678  .00000286  00000+0  73459-4 0  9995", "line2": "2 39084  98.2063  62.5112 0001086  91.0026 269.1297 14.57109859671889"}}, "geometry": {"type": "Point", "coordinates": [-115.59649356019426, 10.883945201810036]}}, {"type": "Feature", "properties": {"norad_id": 39086, "name": "SARAL", "group": "resource", "lat": 15.907204546057626, "lon": 1.1418266824600958, "alt_km": 782.4765875072371, "timestamp": "2025-12-20T20:38:44.101054+00:00", "meta": {"OBJECT_NAME": "SARAL", "OBJECT_ID": "2013-009A", "EPOCH": "2025-12-20T14:51:20.513088", "MEAN_MOTION": 14.32759518, "ECCENTRICITY": 0.00029596, "INCLINATION": 98.5502, "RA_OF_ASC_NODE": 178.4465, "ARG_OF_PERICENTER": 93.8067, "MEAN_ANOMALY": 266.3455, "EPHEMERIS_TYPE": 0, "CLASSIFICATION_TYPE": "U", "NORAD_CAT_ID": 39086, "ELEMENT_SET_NO": 999, "REV_AT_EPOCH": 67003, "BSTAR": 4.4105457e-05, "MEAN_MOTION_DOT": 7.6e-07, "MEAN_MOTION_DDOT": 0}, "tle": {"line1": "1 39086U 13009A   25354.61898742  .00000076  00000+0  44105-4 0  9993", "line2": "2 39086  98.5502 178.4465 0002959  93.8067 266.3455 14.32759518670032"}}, "geometry": {"type": "Point", "coordinates": [1.1418266824600958, 15.907204546057626]}}, {"type": "Feature", "properties": {"norad_id": 39150, "name": "GAOFEN-1", "group": "resource", "lat": 40.557678388091816, "lon": -107.77025203463417, "alt_km": 625.15809205594, "timestamp": "2025-12-20T20:38:44.101064+00:00", "meta": {"OBJECT_NAME": "GAOFEN-1", "OBJECT_ID": "2013-018A", "EPOCH": "2025-12-20T15:08:25.674144", "MEAN_MOTION": 14.76493401, "ECCENTRICITY": 0.00183905, "INCLINATION": 97.9324, "RA_OF_ASC_NODE": 65.1511, "ARG_OF_PERICENTER": 118.961, "MEAN_ANOMALY": 241.3446, "EPHEMERIS_TYPE": 0, "CLASSIFICATION_TYPE": "U", "NORAD_CAT_ID": 39150, "ELEMENT_SET_NO": 999, "REV_AT_EPOCH": 68189, "BSTAR": 0.00011581534, "MEAN_MOTION_DOT": 7.58e-06, "MEAN_MOTION_DDOT": 0}, "tle": {"line1": "1 39150U 13018A   25354.63085271  .00000758  00000+0  11582-3 0  9991", "line2": "2 39150  97.9324  65.1511 0018390 118.9610 241.3446 14.76493401681895"}}, "geometry": {"type": "Point", "coordinates": [-107.77025203463417, 40.557678388091816]}}, {"type": "Feature", "properties": {"norad_id": 39160, "name": "VNREDSAT 1", "group": "resource", "lat": -42.28890912737892, "lon": -137.43927068573905, "alt_km": 684.5989425707176, "timestamp": "2025-12-20T20:38:44.101074+00:00", "meta": {"OBJECT_NAME": "VNREDSAT 1", "OBJECT_ID": "2013-021B", "EPOCH": "2025-12-20T14:42:51.509952", "MEAN_MOTION": 14.64935413, "ECCENTRICITY": 0.000123, "INCLINATION": 97.9369, "RA_OF_ASC_NODE": 49.6125, "ARG_OF_PERICENTER": 80.503, "MEAN_ANOMALY": 279.6313, "EPHEMERIS_TYPE": 0, "CLASSIFICATION_TYPE": "U", "NORAD_CAT_ID": 39160, "ELEMENT_SET_NO": 999, "REV_AT_EPOCH": 67414, "BSTAR": 0.00018247956, "MEAN_MOTION_DOT": 9.31e-06, "MEAN_MOTION_DDOT": 0}, "tle": {"line1": "1 39160U 13021B   25354.61309618  .00000931  00000+0  18248-3 0  9997", "line2": "2 39160  97.9369  49.6125 0001230  80.5030 279.6313 14.64935413674146"}}, "geometry": {"type": "Point", "coordinates": [-137.43927068573905, -42.28890912737892]}}, {"type": "Feature", "properties": {"norad_id": 39227, "name": "ARIRANG-5 (KOMPSAT-5)", "group": "resource", "lat": 16.425576502485573, "lon": 176.7871874507422, "alt_km": 551.377127685023, "timestamp": "2025-12-20T20:38:44.101084+00:00", "meta": {"OBJECT_NAME": "ARIRANG-5 (KOMPSAT-5)", "OBJECT_ID": "2013-042A", "EPOCH": "2025-12-20T14:11:14.932320", "MEAN_MOTION": 15.04539355, "ECCENTRICITY": 0.00034176, "INCLINATION": 97.6154, "RA_OF_ASC_NODE": 178.7825, "ARG_OF_PERICENTER": 37.0553, "MEAN_ANOMALY": 323.0908, "EPHEMERIS_TYPE": 0, "CLASSIFICATION_TYPE": "U", "NORAD_CAT_ID": 39227, "ELEMENT_SET_NO": 999, "REV_AT_EPOCH": 67700, "BSTAR": 0.00014284117, "MEAN_MOTION_DOT": 1.941e-05, "MEAN_MOTION_DDOT": 0}, "tle": {"line1": "1 39227U 13042A   25354.59114505  .00001941  00000+0  14284-3 0  9998", "line2": "2 39227  97.6154 178.7825 0003417  37.0553 323.0908 15.04539355677008"}}, "geometry": {"type": "Point", "coordinates": [176.7871874507422, 16.425576502485573]}}, {"type": "Feature", "properties": {"norad_id": 39418, "name": "SKYSAT-A", "group": "resource", "lat": -56.62173008636232, "lon": -146.57062819106963, "alt_km": 525.5126282890442, "timestamp": "2025-12-20T20:38:44.101094+00:00", "meta": {"OBJECT_NAME": "SKYSAT-A", "OBJECT_ID": "2013-066C", "EPOCH": "2025-12-20T14:49:58.805472", "MEAN_MOTION": 15.11656346, "ECCENTRICITY": 0.00213118, "INCLINATION": 97.4097, "RA_OF_ASC_NODE": 44.5871, "ARG_OF_PERICENTER": 207.9644, "MEAN_ANOMALY": 152.0443, "EPHEMERIS_TYPE": 0, "CLASSIFICATION_TYPE": "U", "NORAD_CAT_ID": 39418, "ELEMENT_SET_NO": 999, "REV_AT_EPOCH": 66149, "BSTAR": 0.00016261543, "MEAN_MOTION_DOT": 2.716e-05, "MEAN_MOTION_DDOT": 0}, "tle": {"line1": "1 39418U 13066C   25354.61804173  .00002716  00000+0  16262-3 0  9995", "line2": "2 39418  97.4097  44.5871 0021311 207.9644 152.0443 15.11656346661495"}}, "geometry": {"type": "Point", "coordinates": [-146.57062819106963, -56.62173008636232]}}, {"type": "Feature", "properties": {"norad_id": 39419, "name": "DUBAISAT-2", "group": "resource", "lat": -73.50695343768463, "lon": 11.22264859138133, "alt_km": 541.4500135664193, "timestamp": "2025-12-20T20:38:44.101104+00:00", "meta": {"OBJECT_NAME": "DUBAISAT-2", "OBJECT_ID": "2013-066D", "EPOCH": "2025-12-20T14:36:35.695008", "MEAN_MOTION": 15.08421247, "ECCENTRICITY": 0.00100201, "INCLINATION": 97.4438, "RA_OF_ASC_NODE": 344.7739, "ARG_OF_PERICENTER": 291.4032, "MEAN_ANOMALY": 68.6127, "EPHEMERIS_TYPE": 0, "CLASSIFICATION_TYPE": "U", "NORAD_CAT_ID": 39419, "ELEMENT_SET_NO": 999, "REV_AT_EPOCH": 65945, "BSTAR": 0.00012365445, "MEAN_MOTION_DOT": 1.864e-05, "MEAN_MOTION_DDOT": 0}, "tle": {"line1": "1 39419U 13066D   25354.60874647  .00001864  00000+0  12365-3 0  9991", "line2": "2 39419  97.4438 344.7739 0010020 291.4032  68.6127 15.08421247659457"}}, "geometry": {"type": "Point", "coordinates": [11.22264859138133, -73.50695343768463]}}, {"type": "Feature", "properties": {"norad_id": 39574, "name": "GPM-CORE", "group": "resource", "lat": 52.53347953325481, "lon": -136.94688327341237, "alt_km": 433.04498031267576, "timestamp": "2025-12-20T20:38:44.101114+00:00", "meta": {"OBJECT_NAME": "GPM-CORE", "OBJECT_ID": "2014-009C", "EPOCH": "2025-12-20T14:09:56.413728", "MEAN_MOTION": 15.44576178, "ECCENTRICITY": 0.00093607, "INCLINATION": 64.9718, "RA_OF_ASC_NODE": 186.3923, "ARG_OF_PERICENTER": 248.2881, "MEAN_ANOMALY": 111.7263, "EPHEMERIS_TYPE": 0, "CLASSIFICATION_TYPE": "U", "NORAD_CAT_ID": 39574, "ELEMENT_SET_NO": 999, "REV_AT_EPOCH": 67022, "BSTAR": 0.00012006986, "MEAN_MOTION_DOT": 5.364e-05, "MEAN_MOTION_DDOT": 0}, "tle": {"line1": "1 39574U 14009C   25354.59023627  .00005364  00000+0  12007-3 0  9995", "line2": "2 39574  64.9718 186.3923 0009360 248.2881 111.7263 15.44576178670224"}}, "geometry": {"type": "Point", "coordinates": [-136.94688327341237, 52.53347953325481]}}]}